{
    "links": {
        "self": "http://www.neowsapp.com/rest/v1/neo/3991609?api_key=iIulBulltgU6a56xZRHN4H3l9WmuAYTsLGpBGhQ2"
    },
    "id": "3991609",
    "neo_reference_id": "3991609",
    "name": "(2020 DE)",
    "designation": "2020 DE",
    "nasa_jpl_url": "http://ssd.jpl.nasa.gov/sbdb.cgi?sstr=3991609",
    "absolute_magnitude_h": 26.942,
    "estimated_diameter": {
        "kilometers": {
            "estimated_diameter_min": 0.0108681338,
            "estimated_diameter_max": 0.024301886
        },
        "meters": {
            "estimated_diameter_min": 10.8681338033,
            "estimated_diameter_max": 24.3018859728
        },
        "miles": {
            "estimated_diameter_min": 0.0067531432,
            "estimated_diameter_max": 0.0151004872
        },
        "feet": {
            "estimated_diameter_min": 35.6566081073,
            "estimated_diameter_max": 79.7305995749
        }
    },
    "is_potentially_hazardous_asteroid": false,
    "close_approach_data": [
        {
            "close_approach_date": "1957-01-21",
            "close_approach_date_full": "1957-Jan-21 11:03",
            "epoch_date_close_approach": -408459420000,
            "relative_velocity": {
                "kilometers_per_second": "21.8152871835",
                "kilometers_per_hour": "78535.0338606403",
                "miles_per_hour": "48798.6159007962"
            },
            "miss_distance": {
                "astronomical": "0.4107040602",
                "lunar": "159.7638794178",
                "kilometers": "61440452.606271774",
                "miles": "38177326.9433635212"
            },
            "orbiting_body": "Earth"
        },
        {
            "close_approach_date": "1959-06-15",
            "close_approach_date_full": "1959-Jun-15 12:18",
            "epoch_date_close_approach": -332854920000,
            "relative_velocity": {
                "kilometers_per_second": "19.0502950951",
                "kilometers_per_hour": "68581.0623422761",
                "miles_per_hour": "42613.6050981771"
            },
            "miss_distance": {
                "astronomical": "0.3312686765",
                "lunar": "128.8635151585",
                "kilometers": "49557088.402119055",
                "miles": "30793346.826610759"
            },
            "orbiting_body": "Earth"
        },
        {
            "close_approach_date": "2020-02-20",
            "close_approach_date_full": "2020-Feb-20 11:20",
            "epoch_date_close_approach": 1582197600000,
            "relative_velocity": {
                "kilometers_per_second": "9.681425294",
                "kilometers_per_hour": "34853.1310582541",
                "miles_per_hour": "21656.3802400579"
            },
            "miss_distance": {
                "astronomical": "0.0089513537",
                "lunar": "3.4820765893",
                "kilometers": "1339103.447136619",
                "miles": "832080.2979745822"
            },
            "orbiting_body": "Earth"
        },
        {
            "close_approach_date": "2020-02-20",
            "close_approach_date_full": "2020-Feb-20 18:33",
            "epoch_date_close_approach": 1582223580000,
            "relative_velocity": {
                "kilometers_per_second": "9.6353281246",
                "kilometers_per_hour": "34687.1812484678",
                "miles_per_hour": "21553.2654818604"
            },
            "miss_distance": {
                "astronomical": "0.0087704757",
                "lunar": "3.4117150473",
                "kilometers": "1312044.483606759",
                "miles": "815266.6376969142"
            },
            "orbiting_body": "Moon"
        }
    ],
    "orbital_data": {
        "orbit_id": "4",
        "orbit_determination_date": "2020-03-18 06:18:38",
        "first_observation_date": "2020-02-16",
        "last_observation_date": "2020-02-20",
        "data_arc_in_days": 4,
        "observations_used": 29,
        "orbit_uncertainty": "8",
        "minimum_orbit_intersection": ".00035873",
        "jupiter_tisserand_invariant": "4.108",
        "epoch_osculation": "2458896.5",
        "eccentricity": ".4550475766296446",
        "semi_major_axis": "1.680078742584237",
        "inclination": "3.124924548883862",
        "ascending_node_longitude": "152.0709852386553",
        "orbital_period": "795.413361735359",
        "perihelion_distance": ".9155629822242991",
        "perihelion_argument": "40.68040915993704",
        "aphelion_distance": "2.444594502944174",
        "perihelion_time": "2458932.121187942063",
        "mean_anomaly": "343.8780333898776",
        "mean_motion": ".4525948611355804",
        "equinox": "J2000",
        "orbit_class": {
            "orbit_class_type": "APO",
            "orbit_class_description": "Near-Earth asteroid orbits which cross the Earth’s orbit similar to that of 1862 Apollo",
            "orbit_class_range": "a (semi-major axis) > 1.0 AU; q (perihelion) < 1.017 AU"
        }
    },
    "is_sentry_object": false
}